{
    "links": {
        "self": "http://www.neowsapp.com/rest/v1/neo/3384182?api_key=iIulBulltgU6a56xZRHN4H3l9WmuAYTsLGpBGhQ2"
    },
    "id": "3384182",
    "neo_reference_id": "3384182",
    "name": "(2007 RQ12)",
    "designation": "2007 RQ12",
    "nasa_jpl_url": "http://ssd.jpl.nasa.gov/sbdb.cgi?sstr=3384182",
    "absolute_magnitude_h": 23.6,
    "estimated_diameter": {
        "kilometers": {
            "estimated_diameter_min": 0.0506471459,
            "estimated_diameter_max": 0.1132504611
        },
        "meters": {
            "estimated_diameter_min": 50.6471458835,
            "estimated_diameter_max": 113.2504610618
        },
        "miles": {
            "estimated_diameter_min": 0.0314706677,
            "estimated_diameter_max": 0.0703705522
        },
        "feet": {
            "estimated_diameter_min": 166.1651821003,
            "estimated_diameter_max": 371.5566426699
        }
    },
    "is_potentially_hazardous_asteroid": false,
    "close_approach_data": [
        {
            "close_approach_date": "2004-11-12",
            "close_approach_date_full": "2004-Nov-12 11:54",
            "epoch_date_close_approach": 1100260440000,
            "relative_velocity": {
                "kilometers_per_second": "9.9411456948",
                "kilometers_per_hour": "35788.1245013588",
                "miles_per_hour": "22237.3488047471"
            },
            "miss_distance": {
                "astronomical": "0.0067615853",
                "lunar": "2.6302566817",
                "kilometers": "1011518.758703311",
                "miles": "628528.6113992518"
            },
            "orbiting_body": "Mars"
        },
        {
            "close_approach_date": "2007-09-11",
            "close_approach_date_full": "2007-Sep-11 05:15",
            "epoch_date_close_approach": 1189487700000,
            "relative_velocity": {
                "kilometers_per_second": "10.1086638534",
                "kilometers_per_hour": "36391.1898721806",
                "miles_per_hour": "22612.0701736336"
            },
            "miss_distance": {
                "astronomical": "0.0362368258",
                "lunar": "14.0961252362",
                "kilometers": "5420951.955241046",
                "miles": "3368423.3491205948"
            },
            "orbiting_body": "Earth"
        }
    ],
    "orbital_data": {
        "orbit_id": "9",
        "orbit_determination_date": "2017-04-06 09:06:05",
        "first_observation_date": "2007-09-11",
        "last_observation_date": "2007-10-13",
        "data_arc_in_days": 32,
        "observations_used": 29,
        "orbit_uncertainty": "8",
        "minimum_orbit_intersection": ".00123505",
        "jupiter_tisserand_invariant": "3.937",
        "epoch_osculation": "2454361.5",
        "eccentricity": ".4732760425758777",
        "semi_major_axis": "1.792486961772633",
        "inclination": "1.239465063253998",
        "ascending_node_longitude": "84.58983822159259",
        "orbital_period": "876.5615870052076",
        "perihelion_distance": ".9441458261360226",
        "perihelion_argument": "222.1311721661991",
        "aphelion_distance": "2.640828097409243",
        "perihelion_time": "2454322.523943453929",
        "mean_anomaly": "16.00729551077419",
        "mean_motion": ".4106956149310034",
        "equinox": "J2000",
        "orbit_class": {
            "orbit_class_type": "APO",
            "orbit_class_description": "Near-Earth asteroid orbits which cross the Earth’s orbit similar to that of 1862 Apollo",
            "orbit_class_range": "a (semi-major axis) > 1.0 AU; q (perihelion) < 1.017 AU"
        }
    },
    "is_sentry_object": false
}